OBJECT_NAME,OBJECT_ID,EPOCH,MEAN_MOTION,ECCENTRICITY,INCLINATION,RA_OF_ASC_NODE,ARG_OF_PERICENTER,MEAN_ANOMALY,EPHEMERIS_TYPE,CLASSIFICATION_TYPE,NORAD_CAT_ID,ELEMENT_SET_NO,REV_AT_EPOCH,BSTAR,MEAN_MOTION_DOT,MEAN_MOTION_DDOT
ONEWEB-0473,2022-012AH,2026-07-21T01:56:08.313792,13.10372342,.00018363,87.8814,29.5206,90.6923,269.4415,0,U,51653,999,21374,-.18092401E-2,-.619E-5,0
ONEWEB-0474,2022-012AJ,2026-07-21T05:23:49.974144,13.10369607,.00016676,87.8819,29.4794,98.0293,262.1024,0,U,51654,999,21375,-.47307096E-3,-.152E-5,0
ONEWEB-0475,2022-012AK,2026-07-21T03:58:46.174944,13.17648421,.00016103,87.9154,359.1136,115.4109,244.7189,0,U,51655,999,21816,-.2644381E-4,.3E-7,0
ONEWEB-0490,2022-138A,2026-07-20T19:08:01.274208,13.19724121,.00021023,87.9193,298.2765,104.6458,255.4908,0,U,54113,999,18126,-.66013607E-4,-.13E-6,0
ONEWEB-0492,2022-138B,2026-07-20T19:44:24.303264,13.19724226,.00022622,87.9182,298.2708,102.1742,257.9644,0,U,54114,999,18127,-.41279317E-4,-.4E-7,0
ONEWEB-0495,2022-138C,2026-07-20T19:12:34.078752,13.19726331,.00023646,87.9184,298.2778,115.2968,244.8410,0,U,54115,999,18125,-.19497944E-3,-.65E-6,0
ONEWEB-0497,2022-138D,2026-07-20T19:30:45.320256,13.19723828,.00020541,87.9191,298.2693,102.9669,257.1693,0,U,54116,999,18124,-.72296772E-4,-.16E-6,0
ONEWEB-0499,2022-138E,2026-07-20T19:06:53.278272,13.19724624,.00020118,87.9184,298.2793,107.7328,252.4024,0,U,54117,999,18125,-.34009141E-4,-.1E-7,0
ONEWEB-0500,2022-138F,2026-07-20T19:10:18.259680,13.19725955,.00020589,87.9192,298.2755,98.3362,261.8004,0,U,54118,999,18126,-.84904464E-4,-.21E-6,0
ONEWEB-0501,2022-138G,2026-07-20T23:31:52.668480,13.19726137,.00022098,87.9190,298.2396,111.0994,249.0376,0,U,54119,999,18126,.68592283E-4,.4E-6,0
ONEWEB-0502,2022-138H,2026-07-20T19:33:01.586016,13.19723818,.00019875,87.9195,298.2615,107.9546,252.1804,0,U,54120,999,18126,-.849252E-6,.13E-6,0
ONEWEB-0503,2022-138J,2026-07-21T00:44:38.622048,13.19726285,.00017362,87.9196,298.2249,99.8022,260.3306,0,U,54121,999,18128,-.15777299E-3,-.5E-6,0
ONEWEB-0504,2022-138K,2026-07-21T00:26:26.826720,13.19726927,.00019666,87.9190,298.2317,107.9340,252.2007,0,U,54122,999,18129,.80030043E-4,.45E-6,0
ONEWEB-0505,2022-138L,2026-07-21T00:21:53.489088,13.19723452,.00021097,87.9190,298.2328,113.2208,246.9147,0,U,54123,999,18127,.92448982E-4,.5E-6,0
ONEWEB-0506,2022-138M,2026-07-20T18:18:00.216000,13.19725352,.00021119,87.9193,298.2811,109.5736,250.5625,0,U,54124,999,18123,.1732558E-3,.82E-6,0
ONEWEB-0507,2022-138N,2026-07-20T18:47:32.394048,13.19726833,.00021124,87.9183,298.2859,105.5966,254.5400,0,U,54125,999,18128,.59945953E-4,.37E-6,0
ONEWEB-0508,2022-138P,2026-07-21T05:38:03.721920,13.19726437,.00023255,87.9187,298.1956,108.3270,251.8116,0,U,54126,999,18132,-.7994831E-5,.1E-6,0
ONEWEB-0509,2022-138Q,2026-07-20T19:55:47.309088,13.19724453,.0002088,87.9194,298.2691,105.0439,255.0925,0,U,54127,999,18124,-.69257906E-4,-.15E-6,0
ONEWEB-0510,2022-138R,2026-07-21T03:31:24.485088,13.20771405,.00018643,87.9178,267.6689,85.5939,274.5407,0,U,54128,999,18376,.27562998E-3,.125E-5,0
ONEWEB-0511,2022-138S,2026-07-20T23:29:35.074752,13.19724373,.00017912,87.9190,298.2408,105.1927,254.9404,0,U,54129,999,18129,.15887307E-3,.77E-6,0
ONEWEB-0512,2022-138T,2026-07-20T19:39:51.101280,13.19723956,.00019837,87.9183,298.2754,110.6304,249.5041,0,U,54130,999,18124,.26188175E-4,.23E-6,0
ONEWEB-0513,2022-138U,2026-07-20T19:28:01.269120,13.20269574,.00018356,87.9190,298.2171,127.4863,232.6437,0,U,54131,999,18115,-.204037E-3,-.69E-6,0
ONEWEB-0514,2022-138V,2026-07-20T23:40:57.620064,13.19723801,.00019749,87.9191,298.2388,96.5496,263.5862,0,U,54132,999,18128,-.91627888E-4,-.24E-6,0
ONEWEB-0515,2022-138W,2026-07-21T03:12:01.633536,13.20772493,.00026477,87.9183,267.6678,81.6918,278.4515,0,U,54133,999,18378,.23573341E-3,.109E-5,0
ONEWEB-0516,2022-138X,2026-07-20T23:04:33.996576,13.19724712,.00021918,87.9185,298.2473,101.6540,258.4839,0,U,54134,999,18128,.10400991E-4,.17E-6,0
ONEWEB-0517,2022-138Y,2026-07-21T00:24:10.452096,13.19726343,.00016996,87.9190,298.2311,100.6346,259.4979,0,U,54135,999,18129,.20443642E-4,.21E-6,0
ONEWEB-0518,2022-138Z,2026-07-20T19:23:56.858208,13.19724394,.00022439,87.9184,298.2798,100.5133,259.6253,0,U,54136,999,18126,-.1622779E-3,-.52E-6,0
ONEWEB-0519,2022-138AA,2026-07-20T20:00:19.685952,13.19723733,.00018149,87.9190,298.2688,99.5352,260.5986,0,U,54137,999,18127,.15579291E-3,.75E-6,0
ONEWEB-0520,2022-138AB,2026-07-21T00:28:43.703328,13.19724124,.00021466,87.9193,298.2320,107.0359,253.1009,0,U,54138,999,18128,-.17925887E-3,-.59E-6,0
ONEWEB-0521,2022-138AC,2026-07-20T19:48:56.617056,13.19723482,.00018145,87.9196,298.2600,98.3280,261.8059,0,U,54139,999,18120,-.55177325E-4,-.9E-7,0
