ONEWEB-0473             
1 51653U 22012AH  26202.08065178 -.00000619  00000+0 -18092-2 0  9993
2 51653  87.8814  29.5206 0001836  90.6923 269.4415 13.10372342213743
ONEWEB-0474             
1 51654U 22012AJ  26202.22488396 -.00000152  00000+0 -47307-3 0  9995
2 51654  87.8819  29.4794 0001667  98.0293 262.1024 13.10369607213751
ONEWEB-0475             
1 51655U 22012AK  26202.16581221  .00000003  00000+0 -26444-4 0  9994
2 51655  87.9154 359.1136 0001610 115.4109 244.7189 13.17648421218165
ONEWEB-0490             
1 54113U 22138A   26201.79723697 -.00000013  00000+0 -66014-4 0  9997
2 54113  87.9193 298.2765 0002102 104.6458 255.4908 13.19724121181267
ONEWEB-0492             
1 54114U 22138B   26201.82250351 -.00000004  00000+0 -41279-4 0  9990
2 54114  87.9182 298.2708 0002262 102.1742 257.9644 13.19724226181270
ONEWEB-0495             
1 54115U 22138C   26201.80039443 -.00000065  00000+0 -19498-3 0  9990
2 54115  87.9184 298.2778 0002364 115.2968 244.8410 13.19726331181251
ONEWEB-0497             
1 54116U 22138D   26201.81302454 -.00000016  00000+0 -72297-4 0  9990
2 54116  87.9191 298.2693 0002054 102.9669 257.1693 13.19723828181240
ONEWEB-0499             
1 54117U 22138E   26201.79644998 -.00000001  00000+0 -34009-4 0  9993
2 54117  87.9184 298.2793 0002011 107.7328 252.4024 13.19724624181254
ONEWEB-0500             
1 54118U 22138F   26201.79882245 -.00000021  00000+0 -84904-4 0  9994
2 54118  87.9192 298.2755 0002058  98.3362 261.8004 13.19725955181267
ONEWEB-0501             
1 54119U 22138G   26201.98047070  .00000040  00000+0  68592-4 0  9999
2 54119  87.9190 298.2396 0002209 111.0994 249.0376 13.19726137181262
ONEWEB-0502             
1 54120U 22138H   26201.81460169  .00000013  00000+0 -84925-6 0  9992
2 54120  87.9195 298.2615 0001987 107.9546 252.1804 13.19723818181266
ONEWEB-0503             
1 54121U 22138J   26202.03100257 -.00000050  00000+0 -15777-3 0  9995
2 54121  87.9196 298.2249 0001736  99.8022 260.3306 13.19726285181282
ONEWEB-0504             
1 54122U 22138K   26202.01836605  .00000045  00000+0  80030-4 0  9994
2 54122  87.9190 298.2317 0001966 107.9340 252.2007 13.19726927181294
ONEWEB-0505             
1 54123U 22138L   26202.01520242  .00000050  00000+0  92449-4 0  9995
2 54123  87.9190 298.2328 0002109 113.2208 246.9147 13.19723452181273
ONEWEB-0506             
1 54124U 22138M   26201.76250250  .00000082  00000+0  17326-3 0  9991
2 54124  87.9193 298.2811 0002111 109.5736 250.5625 13.19725352181230
ONEWEB-0507             
1 54125U 22138N   26201.78301382  .00000037  00000+0  59946-4 0  9992
2 54125  87.9183 298.2859 0002112 105.5966 254.5400 13.19726833181289
ONEWEB-0508             
1 54126U 22138P   26202.23476530  .00000010  00000+0 -79948-5 0  9999
2 54126  87.9187 298.1956 0002325 108.3270 251.8116 13.19726437181325
ONEWEB-0509             
1 54127U 22138Q   26201.83040867 -.00000015  00000+0 -69258-4 0  9993
2 54127  87.9194 298.2691 0002088 105.0439 255.0925 13.19724453181249
ONEWEB-0510             
1 54128U 22138R   26202.14681117  .00000125  00000+0  27563-3 0  9990
2 54128  87.9178 267.6689 0001864  85.5939 274.5407 13.20771405183768
ONEWEB-0511             
1 54129U 22138S   26201.97887818  .00000077  00000+0  15887-3 0  9999
2 54129  87.9190 298.2408 0001791 105.1927 254.9404 13.19724373181292
ONEWEB-0512             
1 54130U 22138T   26201.81934145  .00000023  00000+0  26188-4 0  9998
2 54130  87.9183 298.2754 0001983 110.6304 249.5041 13.19723956181241
ONEWEB-0513             
1 54131U 22138U   26201.81112580 -.00000069  00000+0 -20404-3 0  9996
2 54131  87.9190 298.2171 0001835 127.4863 232.6437 13.20269574181150
ONEWEB-0514             
1 54132U 22138V   26201.98677801 -.00000024  00000+0 -91628-4 0  9995
2 54132  87.9191 298.2388 0001974  96.5496 263.5862 13.19723801181289
ONEWEB-0515             
1 54133U 22138W   26202.13335224  .00000109  00000+0  23573-3 0  9999
2 54133  87.9183 267.6678 0002647  81.6918 278.4515 13.20772493183785
ONEWEB-0516             
1 54134U 22138X   26201.96150459  .00000017  00000+0  10401-4 0  9990
2 54134  87.9185 298.2473 0002191 101.6540 258.4839 13.19724712181288
ONEWEB-0517             
1 54135U 22138Y   26202.01678764  .00000021  00000+0  20444-4 0  9995
2 54135  87.9190 298.2311 0001699 100.6346 259.4979 13.19726343181290
ONEWEB-0518             
1 54136U 22138Z   26201.80829697 -.00000052  00000+0 -16228-3 0  9995
2 54136  87.9184 298.2798 0002243 100.5133 259.6253 13.19724394181260
ONEWEB-0519             
1 54137U 22138AA  26201.83356118  .00000075  00000+0  15579-3 0  9993
2 54137  87.9190 298.2688 0001814  99.5352 260.5986 13.19723733181270
ONEWEB-0520             
1 54138U 22138AB  26202.01995027 -.00000059  00000+0 -17926-3 0  9995
2 54138  87.9193 298.2320 0002146 107.0359 253.1009 13.19724124181288
ONEWEB-0521             
1 54139U 22138AC  26201.82565529 -.00000009  00000+0 -55177-4 0  9990
2 54139  87.9196 298.2600 0001814  98.3280 261.8059 13.19723482181208
